NORAD_CAT_ID,OBJECT_NAME,OBJECT_TYPE,EPOCH,MEAN_MOTION,ECCENTRICITY,INCLINATION,RA_OF_ASC_NODE,ARG_OF_PERICENTER,MEAN_ANOMALY,BSTAR,MEAN_MOTION_DOT,MEAN_MOTION_DDOT,TLE_LINE0,TLE_LINE1,TLE_LINE2,SEMIMAJOR_AXIS,PERIOD,APOGEE,PERIGEE,DECAYED
51858.0,STARLINK-3563,PAYLOAD,2022-03-17 14:00:01,15.73226856,0.0001484,53.2176,74.9933,55.3539,356.0208,-0.00045526,-0.00064102,0.0,0 STARLINK-3563,1 51858U 22022G   22076.58334491 -.00064102  00000-0 -45526-3 0  9999,2 51858  53.2176  74.9933 0001484  55.3539 356.0208 15.73226856  2859,6727.819,91.532,350.682,348.685,0.0
51858.0,STARLINK-3563,PAYLOAD,2022-03-17 22:00:00,15.73168376,0.0001252,53.2178,73.3422,65.4893,74.8209,0.00062326,0.00087648,0.0,0 STARLINK-3563,1 51858U 22022G   22076.91667824  .00087648  00000-0  62326-3 0  9990,2 51858  53.2178  73.3422 0001252  65.4893  74.8209 15.73168376  2909,6727.985,91.535,350.6930000000001,349.0080000000001,0.0
51858.0,STARLINK-3563,PAYLOAD,2022-03-18 08:00:01,15.73221515,0.0001301,53.2182,71.2825,54.9531,286.5295,-0.0001971,-0.00028214,0.0,0 STARLINK-3563,1 51858U 22022G   22077.33334491 -.00028214  00000-0 -19710-3 0  9993,2 51858  53.2182  71.2825 0001301  54.9531 286.5295 15.73221515  3582,6727.834,91.532,350.574,348.824,0.0
51858.0,STARLINK-3563,PAYLOAD,2022-03-18 14:00:01,15.73209293,0.0001190999999999,53.2182,70.0446,50.758,267.43,0.00014756,0.00020147,0.0,0 STARLINK-3563,1 51858U 22022G   22077.58334491  .00020147  00000-0  14756-3 0  9990,2 51858  53.2182  70.0446 0001191  50.7580 267.4300 15.73209293  3004,6727.869000000002,91.533,350.535,348.932,0.0
51858.0,STARLINK-3563,PAYLOAD,2022-03-18 22:00:00,15.73235474,0.0001235,53.2186,68.3933,63.6178,343.5138,-0.00016397,-0.00023602,0.0,0 STARLINK-3563,1 51858U 22022G   22077.91667824 -.00023602  00000-0 -16397-3 0  9990,2 51858  53.2186  68.3933 0001235  63.6178 343.5138 15.73235474  3672,6727.794,91.531,350.49,348.82800000000015,0.0
51858.0,STARLINK-3563,PAYLOAD,2022-03-19 14:00:01,15.73207363,9.93e-05,53.2172,65.0876,68.5229,156.3412,-4.4799e-05,-6.903e-05,0.0,0 STARLINK-3563,1 51858U 22022G   22078.58334491 -.00006903  00000-0 -44799-4 0  9998,2 51858  53.2172  65.0876 0000993  68.5229 156.3412 15.73207363  3781,6727.874,91.533,350.407,349.071,0.0
51858.0,STARLINK-3563,PAYLOAD,2022-03-19 22:00:01,15.73194948,0.0001095999999999,53.2187,63.4448,66.2663,247.8349,0.0005288,0.00074235,0.0,0 STARLINK-3563,1 51858U 22022G   22078.91668981  .00074235  00000-0  52880-3 0  9999,2 51858  53.2187  63.4448 0001096  66.2663 247.8349 15.73194948  3831,6727.91,91.533,350.51199999999994,349.037,0.0
51858.0,STARLINK-3563,PAYLOAD,2022-03-20 06:00:00,15.73236154,0.0001114,53.2189,61.7975,54.7216,348.2633,-0.00045372,-0.00063911,0.0,0 STARLINK-3563,1 51858U 22022G   22079.25001157 -.00063911  00000-0 -45372-3 0  9992,2 51858  53.2189  61.7975 0001114  54.7216 348.2633 15.73236154  3889,6727.792,91.531,350.407,348.908,0.0
51858.0,STARLINK-3563,PAYLOAD,2022-03-20 14:00:01,15.73256317,0.0001099,53.2191,60.1473,53.7631,78.1649,-0.00062313,-0.00087376,0.0,0 STARLINK-3563,1 51858U 22022G   22079.58334491 -.00087376  00000-0 -62313-3 0  9993,2 51858  53.2191  60.1473 0001099  53.7631  78.1649 15.73256317  3328,6727.735,91.53,350.339,348.86,0.0
51858.0,STARLINK-3563,PAYLOAD,2022-03-20 22:00:01,15.7318389,0.0001115,53.2196,58.4963,68.126,152.8464,0.00061872,0.00087056,0.0,0 STARLINK-3563,1 51858U 22022G   22079.91668981  .00087056  00000-0  61872-3 0  9996,2 51858  53.2196  58.4963 0001115  68.1260 152.8464 15.73183890  3380,6727.941,91.534,350.556,349.056,0.0
51858.0,STARLINK-3563,PAYLOAD,2022-03-21 14:00:01,15.73223617,0.0001115,53.2194,55.199,56.4932,342.2634,-0.00066816,-0.00093448,0.0,0 STARLINK-3563,1 51858U 22022G   22080.58334491 -.00093448  00000-0 -66816-3 0  9994,2 51858  53.2194  55.1990 0001115  56.4932 342.2634 15.73223617  4093,6727.828,91.532,350.4430000000001,348.9430000000001,0.0
51858.0,STARLINK-3563,PAYLOAD,2022-03-21 20:00:01,15.73131467,0.000116,53.2195,53.9607,71.0739,304.3832,0.00054342,0.00076114,0.0,0 STARLINK-3563,1 51858U 22022G   22080.83334491  .00076114  00000-0  54342-3 0  9992,2 51858  53.2195  53.9607 0001160  71.0739 304.3832 15.73131467  4138,6728.090999999999,91.537,350.736,349.175,0.0
51858.0,STARLINK-3563,PAYLOAD,2022-03-21 22:00:00,15.7314641,0.0001193,53.2197,53.5487,73.2793,54.3905,0.00050558,0.00070771,0.0,0 STARLINK-3563,1 51858U 22022G   22080.91667824  .00070771  00000-0  50558-3 0  9998,2 51858  53.2197  53.5487 0001193  73.2793  54.3905 15.73146410  3532,6728.0480000000025,91.536,350.716,349.11,0.0
51858.0,STARLINK-3563,PAYLOAD,2022-03-22 14:00:01,15.73229083,0.0001311,53.2196,50.2498,68.2325,237.2506,-0.00043773,-0.0006167999999999,0.0,0 STARLINK-3563,1 51858U 22022G   22081.58334491 -.00061680  00000-0 -43773-3 0  9995,2 51858  53.2196  50.2498 0001311  68.2325 237.2506 15.73229083  4251,6727.812,91.531,350.559,348.795,0.0
51858.0,STARLINK-3563,PAYLOAD,2022-03-22 22:00:01,15.73417198,0.0001262999999999,53.2187,48.5944,75.8455,318.5983,-0.0049543999999999,-0.00650675,0.0,0 STARLINK-3563,1 51858U 22022G   22081.91668981 -.00650675  00000-0 -49544-2 0  9995,2 51858  53.2187  48.5944 0001263  75.8455 318.5983 15.73417198  3696,6727.276,91.521,349.991,348.291,0.0
51858.0,STARLINK-3563,PAYLOAD,2022-03-23 06:00:00,15.730182199999998,0.0001479,53.2181,46.9435,65.2959,57.966,-0.0025771,-0.00345165,0.0,0 STARLINK-3563,1 51858U 22022G   22082.25001157 -.00345165  00000-0 -25771-2 0  9990,2 51858  53.2181  46.9435 0001479  65.2959  57.9660 15.73018220  4351,6728.413000000001,91.544,351.274,349.283,0.0
51858.0,STARLINK-3563,PAYLOAD,2022-03-23 14:00:01,15.7277274,0.0001195,53.2174,45.2905,73.9939,137.8536,-0.0057123,-0.00723317,0.0,0 STARLINK-3563,1 51858U 22022G   22082.58334491 -.00723317  00000-0 -57123-2 0  9991,2 51858  53.2174  45.2905 0001195  73.9939 137.8536 15.72772740  4416,6729.114000000001,91.558,351.783,350.1740000000001,0.0
51858.0,STARLINK-3563,PAYLOAD,2022-03-23 22:00:00,15.72260787,0.000114,53.2176,43.64100000000001,74.865,225.0838,-0.0057967,-0.00718475,0.0,0 STARLINK-3563,1 51858U 22022G   22082.91667824 -.00718475  00000-0 -57967-2 0  9992,2 51858  53.2176  43.6410 0001140  74.8650 225.0838 15.72260787  3711,6730.574000000001,91.588,353.207,351.672,0.0
51858.0,STARLINK-3563,PAYLOAD,2022-03-24 14:00:01,15.71241097,0.0001123,53.2174,40.3476,67.2204,47.0911,-0.0060643,-0.00719608,0.0,0 STARLINK-3563,1 51858U 22022G   22083.58334491 -.00719608  00000-0 -60643-2 0  9991,2 51858  53.2174  40.3476 0001123  67.2204  47.0911 15.71241097  3690,6733.486,91.647,356.107,354.595,0.0
51858.0,STARLINK-3563,PAYLOAD,2022-03-24 22:00:00,15.70730167,0.0001261,53.2176,38.7018,71.6048,128.9694,-0.0061727,-0.0071707,0.0,0 STARLINK-3563,1 51858U 22022G   22083.91667824 -.00717070  00000-0 -61727-2 0  9992,2 51858  53.2176  38.7018 0001261  71.6048 128.9694 15.70730167  4624,6734.946,91.677,357.66,355.962,0.0
51858.0,STARLINK-3563,PAYLOAD,2022-03-25 14:00:01,15.69710619,0.0001026,53.2176,35.4156,75.1464,296.1140000000001,-0.0064569,-0.00718476,0.0,0 STARLINK-3563,1 51858U 22022G   22084.58334491 -.00718476  00000-0 -64569-2 0  9995,2 51858  53.2176  35.4156 0001026  75.1464 296.1140 15.69710619  3699,6737.861999999999,91.737,360.418,359.036,0.0
51858.0,STARLINK-3563,PAYLOAD,2022-03-25 20:00:01,15.69326354,0.000107,53.2176,34.1836,81.1191,263.5176,-0.0065274,-0.00715074,0.0,0 STARLINK-3563,1 51858U 22022G   22084.83334491 -.00715074  00000-0 -65274-2 0  9998,2 51858  53.2176  34.1836 0001070  81.1191 263.5176 15.69326354  4768,6738.962,91.759,361.548,360.106,0.0
51858.0,STARLINK-3563,PAYLOAD,2022-03-25 22:00:01,15.69199893,0.000111,53.2176,33.7738,71.592,24.158,-0.0065778,-0.0071668,0.0,0 STARLINK-3563,1 51858U 22022G   22084.91668981 -.00716680  00000-0 -65778-2 0  9994,2 51858  53.2176  33.7738 0001110  71.5920  24.1580 15.69199893  3745,6739.324000000001,91.767,361.937,360.441,0.0
51858.0,STARLINK-3563,PAYLOAD,2022-03-26 14:00:01,15.68182457,0.0001147,53.2175,30.4949,79.8222,182.8708,-0.0069055,-0.00720964,0.0,0 STARLINK-3563,1 51858U 22022G   22085.58334491 -.00720964  00000-0 -69055-2 0  9996,2 51858  53.2175  30.4949 0001147  79.8222 182.8708 15.68182457  3682,6742.239000000001,91.826,364.877,363.33,0.0
51858.0,STARLINK-3563,PAYLOAD,2022-03-26 20:00:01,15.67797918,0.0001248,53.2174,29.2658,71.9937,162.6967,-0.0069651,-0.00716205,0.0,0 STARLINK-3563,1 51858U 22022G   22085.83334491 -.00716205  00000-0 -69651-2 0  9999,2 51858  53.2174  29.2658 0001248  71.9937 162.6967 15.67797918  4926,6743.340999999999,91.849,366.048,364.364,0.0
51858.0,STARLINK-3563,PAYLOAD,2022-03-26 22:00:00,15.67671661,0.0001094,53.2175,28.8571,69.1287,276.1502,-0.0070316999999999,-0.0071903,0.0,0 STARLINK-3563,1 51858U 22022G   22085.91667824 -.00719030  00000-0 -70317-2 0  9997,2 51858  53.2175  28.8571 0001094  69.1287 276.1502 15.67671661  3709,6743.703,91.856,366.306,364.83,0.0
51858.0,STARLINK-3563,PAYLOAD,2022-03-27 14:00:01,15.66649801,0.0001162,53.2175,25.5853,72.307,76.3053,-0.007295,-0.00715744,0.0,0 STARLINK-3563,1 51858U 22022G   22086.58334491 -.00715744  00000-0 -72950-2 0  9995,2 51858  53.2175  25.5853 0001162  72.3070  76.3053 15.66649801  3709,6746.635,91.916,369.284,367.716,0.0
51858.0,STARLINK-3563,PAYLOAD,2022-03-27 22:00:01,15.66140017,0.0001307,53.2178,23.9515,64.6653,164.7594,-0.0074485,-0.00715856,0.0,0 STARLINK-3563,1 51858U 22022G   22086.91668981 -.00715856  00000-0 -74485-2 0  9995,2 51858  53.2178  23.9515 0001307  64.6653 164.7594 15.66140017  5092,6748.099,91.946,370.846,369.082,0.0
51858.0,STARLINK-3563,PAYLOAD,2022-03-28 14:00:01,15.6511957,0.0001082,53.2174,20.687,59.6386,329.4424,-0.0077548,-0.00715245,0.0,0 STARLINK-3563,1 51858U 22022G   22087.58335648 -.00715245  00000-0 -77548-2 0  9995,2 51858  53.2174  20.6870 0001082  59.6386 329.4424 15.65119570  3700,6751.031999999997,92.006,373.627,372.166,0.0
